ONEWEB-0210             
1 48787U 21045W   24144.28307311  .00000074  00000+0  16304-3 0  9993
2 48787  87.9056  49.4094 0002089 107.0326 253.1033 13.15546995145060
ONEWEB-0214             
1 48788U 21045X   24144.29257667  .00000024  00000+0  30203-4 0  9993
2 48788  87.9057  49.3958 0001756 105.1190 255.0134 13.15549589145030
ONEWEB-0221             
1 48789U 21045Y   24144.22285980 -.00000274  00000+0 -76106-3 0  9996
2 48789  87.9058  49.4274 0002152  85.9073 274.2303 13.15547989146258
ONEWEB-0213             
1 48790U 21045Z   24144.28782473  .00000023  00000+0  28091-4 0  9994
2 48790  87.9058  49.4283 0002179  90.5459 269.5921 13.15550023145186
ONEWEB-0212             
1 48791U 21045AA  24144.26484591 -.00000259  00000+0 -72327-3 0  9996
2 48791  87.9059  49.4153 0001882  77.5199 282.6142 13.15549537145178
ONEWEB-0227             
1 48792U 21045AB  24144.26406052  .00000240  00000+0  60321-3 0  9992
2 48792  87.9057  49.4314 0002011  81.7715 278.3643 13.15549816145125
ONEWEB-0226             
1 48793U 21045AC  24144.25772134  .00000238  00000+0  59845-3 0  9995
2 48793  87.9054  49.4397 0002064  97.3718 262.7647 13.15549958145092
ONEWEB-0224             
1 48794U 21045AD  24144.29733756 -.00000052  00000+0 -17110-3 0  9992
2 48794  87.9062  49.4514 0003030  75.2434 284.9032 13.15551716145029
